[{"OBJECT_NAME":"CAPELLA-17 (ACADIA-7)","OBJECT_ID":"2025-135BH","EPOCH":"2026-03-09T21:46:00.782400","MEAN_MOTION":14.90843227,"ECCENTRICITY":0.00046578,"INCLINATION":97.7566,"RA_OF_ASC_NODE":184.0901,"ARG_OF_PERICENTER":330.6991,"MEAN_ANOMALY":29.3965,"EPHEMERIS_TYPE":0,"CLASSIFICATION_TYPE":"U","NORAD_CAT_ID":64583,"ELEMENT_SET_NO":999,"REV_AT_EPOCH":3905,"BSTAR":0.0010665608,"MEAN_MOTION_DOT":0.0001046,"MEAN_MOTION_DDOT":0},{"OBJECT_NAME":"SL-14 R\/B","OBJECT_ID":"1977-055B","EPOCH":"2026-03-09T12:09:50.153472","MEAN_MOTION":14.92006976,"ECCENTRICITY":0.00409775,"INCLINATION":75.8306,"RA_OF_ASC_NODE":90.7175,"ARG_OF_PERICENTER":356.0217,"MEAN_ANOMALY":4.0643,"EPHEMERIS_TYPE":0,"CLASSIFICATION_TYPE":"U","NORAD_CAT_ID":10096,"ELEMENT_SET_NO":999,"REV_AT_EPOCH":63654,"BSTAR":8.4112642e-5,"MEAN_MOTION_DOT":8.45e-6,"MEAN_MOTION_DDOT":0}]
